NORAD_CAT_ID,OBJECT_NAME,OBJECT_TYPE,EPOCH,MEAN_MOTION,ECCENTRICITY,INCLINATION,RA_OF_ASC_NODE,ARG_OF_PERICENTER,MEAN_ANOMALY,BSTAR,MEAN_MOTION_DOT,MEAN_MOTION_DDOT,TLE_LINE0,TLE_LINE1,TLE_LINE2,SEMIMAJOR_AXIS,PERIOD,APOGEE,PERIGEE,DECAYED
55929.0,STARLINK-5898,PAYLOAD,2023-04-04 14:00:01,15.69899862,0.0003743,69.9965,130.9893,274.2019,189.2771,0.00028275,0.00033891,0.0,0 STARLINK-5898,1 55929U 23037R   23094.58334491  .00033891  00000-0  28275-3 0  9991,2 55929  69.9965 130.9893 0003743 274.2019 189.2771 15.69899862  3327,6737.32,91.726,361.707,356.664,0.0
55929.0,STARLINK-5898,PAYLOAD,2023-04-04 22:00:00,15.6988806,0.0003767,69.9973,130.0519,268.7602,278.0465,0.00065299,0.00078934,0.0,0 STARLINK-5898,1 55929U 23037R   23094.91667824  .00078934  00000-0  65299-3 0  9991,2 55929  69.9973 130.0519 0003767 268.7602 278.0465 15.69888060  1305,6737.354,91.726,361.757,356.681,0.0
55929.0,STARLINK-5898,PAYLOAD,2023-04-05 06:00:00,15.69942314,0.0003674,69.9982,129.1147,272.0116,358.1169,-0.00035959,-0.00043264,0.0,0 STARLINK-5898,1 55929U 23037R   23095.25001157 -.00043264  00000-0 -35959-3 0  9990,2 55929  69.9982 129.1147 0003674 272.0116 358.1169 15.69942314  3436,6737.199,91.723,361.539,356.589,0.0
55929.0,STARLINK-5898,PAYLOAD,2023-04-05 14:00:01,15.69928185,0.0003619,69.9986,128.1773,278.4207,75.0529,-1.246e-05,-1.711e-05,0.0,0 STARLINK-5898,1 55929U 23037R   23095.58334491 -.00001711  00000-0 -12460-4 0  9990,2 55929  69.9986 128.1773 0003619 278.4207  75.0529 15.69928185  1303,6737.239,91.724,361.543,356.666,0.0
55929.0,STARLINK-5898,PAYLOAD,2023-04-05 16:00:00,15.69961253,0.0003538,69.9988,127.9429,277.3817,186.9181,-0.00066619,-0.00079687,0.0,0 STARLINK-5898,1 55929U 23037R   23095.66667824 -.00079687  00000-0 -66619-3 0  9999,2 55929  69.9988 127.9429 0003538 277.3817 186.9181 15.69961253  3496,6737.145,91.722,361.393,356.626,0.0
55929.0,STARLINK-5898,PAYLOAD,2023-04-05 22:00:00,15.69858685,0.0003552,69.9984,127.2401,270.9871,165.8414,0.0010315,0.00125349,0.0,0 STARLINK-5898,1 55929U 23037R   23095.91667824  .00125349  00000-0  10315-2 0  9993,2 55929  69.9984 127.2401 0003552 270.9871 165.8414 15.69858685  1307,6737.438,91.728,361.696,356.91,0.0
55929.0,STARLINK-5898,PAYLOAD,2023-04-06 10:00:00,15.69870666,0.0003611,69.9994,125.8342,278.7875,103.0362,0.00062037,0.00074887,0.0,0 STARLINK-5898,1 55929U 23037R   23096.41667824  .00074887  00000-0  62037-3 0  9998,2 55929  69.9994 125.8342 0003611 278.7875 103.0362 15.69870666  3617,6737.404,91.727,361.702,356.836,0.0
55929.0,STARLINK-5898,PAYLOAD,2023-04-06 14:00:01,15.69938522,0.0003632,69.9992,125.3654,278.0154,325.5258,-0.00015247,-0.00018518,0.0,0 STARLINK-5898,1 55929U 23037R   23096.58335648 -.00018518  00000-0 -15247-3 0  9994,2 55929  69.9992 125.3654 0003632 278.0154 325.5258 15.69938522  1307,6737.21,91.723,361.522,356.628,0.0
55929.0,STARLINK-5898,PAYLOAD,2023-04-06 22:00:00,15.69874918,0.0003517,69.9994,124.4283,270.2177,56.6171,0.00075483,0.00091359,0.0,0 STARLINK-5898,1 55929U 23037R   23096.91667824  .00091359  00000-0  75483-3 0  9995,2 55929  69.9994 124.4283 0003517 270.2177  56.6171 15.69874918  3696,6737.392,91.727,361.626,356.887,0.0
55929.0,STARLINK-5898,PAYLOAD,2023-04-07 08:00:01,15.69911149,0.0003442,69.9994,123.2569,273.0785,247.9202,6.5686e-05,7.689e-05,0.0,0 STARLINK-5898,1 55929U 23037R   23097.33334491  .00007689  00000-0  65686-4 0  9991,2 55929  69.9994 123.2569 0003442 273.0785 247.9202 15.69911149  3758,6737.288,91.725,361.472,356.834,0.0
55929.0,STARLINK-5898,PAYLOAD,2023-04-07 14:00:01,15.6996905,0.0003331,69.9992,122.5539,273.7147,219.7517,-0.00053146,-0.00063752,0.0,0 STARLINK-5898,1 55929U 23037R   23097.58334491 -.00063752  00000-0 -53146-3 0  9990,2 55929  69.9992 122.5539 0003331 273.7147 219.7517 15.69969050  1300,6737.123,91.722,361.232,356.743,0.0
55929.0,STARLINK-5898,PAYLOAD,2023-04-08 10:50:32,15.69930662,0.0003517,69.9989,120.1126,268.8686,91.2107,4.0333e-05,4.641e-05,0.0,0 STARLINK-5898,1 55929U 23037R   23098.45176749  .00004641  00000-0  40333-4 0  9992,2 55929  69.9989 120.1126 0003517 268.8686  91.2107 15.69930662  3937,6737.232,91.724,361.467,356.728,0.0
55929.0,STARLINK-5898,PAYLOAD,2023-04-09 03:39:49,15.69925773,0.0003188,69.9989,118.1432,264.5569,95.5263,1.5504e-05,1.652e-05,0.0,0 STARLINK-5898,1 55929U 23037R   23099.15265211  .00001652  00000-0  15504-4 0  9994,2 55929  69.9989 118.1432 0003188 264.5569  95.5263 15.69925773  4041,6737.246,91.724,361.259,356.964,0.0
55929.0,STARLINK-5898,PAYLOAD,2023-04-09 09:46:49,15.69922484,0.0003347,69.9994,117.4269,265.0345,95.0469,6.4007e-06,5.57e-06,0.0,0 STARLINK-5898,1 55929U 23037R   23099.40752021  .00000557  00000-0  64007-5 0  9998,2 55929  69.9994 117.4269 0003347 265.0345  95.0469 15.69922484  3747,6737.256,91.724,361.376,356.866,0.0
55929.0,STARLINK-5898,PAYLOAD,2023-04-09 12:50:20,15.69921413,0.0003243,69.9995,117.0685,263.1182,96.9644,7.9116e-06,7.39e-06,0.0,0 STARLINK-5898,1 55929U 23037R   23099.53495476  .00000739  00000-0  79116-5 0  9999,2 55929  69.9995 117.0685 0003243 263.1182  96.9644 15.69921413  3767,6737.259,91.724,361.309,356.939,0.0
55929.0,STARLINK-5898,PAYLOAD,2023-04-10 04:07:51,15.6992715,0.0003274,69.9995,115.2769,259.1608,100.9219,2.6696e-05,2.999e-05,0.0,0 STARLINK-5898,1 55929U 23037R   23100.17211959  .00002999  00000-0  26696-4 0  9998,2 55929  69.9995 115.2769 0003274 259.1608 100.9219 15.69927150  4200,6737.242,91.724,361.313,356.902,0.0
55929.0,STARLINK-5898,PAYLOAD,2023-04-10 13:18:21,15.699288,0.0003496,69.999,114.2015,262.6999,97.3799,1.799e-05,1.951e-05,0.0,0 STARLINK-5898,1 55929U 23037R   23100.55441868  .00001951  00000-0  17990-4 0  9998,2 55929  69.9990 114.2015 0003496 262.6999  97.3799 15.69928800  3929,6737.238,91.724,361.458,356.747,0.0
55929.0,STARLINK-5898,PAYLOAD,2023-04-10 17:53:36,15.69949521,0.0003376,70.0004,113.6633,262.5045,97.5767,6.7248e-05,7.889e-05,0.0,0 STARLINK-5898,1 55929U 23037R   23100.74556002  .00007889  00000-0  67248-4 0  9993,2 55929  70.0004 113.6633 0003376 262.5045  97.5767 15.69949521  4296,6737.178,91.723,361.318,356.769,0.0
55929.0,STARLINK-5898,PAYLOAD,2023-04-11 12:14:43,15.69822651,0.0003083,70.0001,111.5144,274.8712,85.2131,-0.00017989,-0.00021695,0.0,0 STARLINK-5898,1 55929U 23037R   23101.51022626 -.00021695  00000-0 -17989-3 0  9998,2 55929  70.0001 111.5144 0003083 274.8712  85.2131 15.69822651  4416,6737.541,91.73,361.484,357.329,0.0
55929.0,STARLINK-5898,PAYLOAD,2023-04-12 03:32:21,15.69753564,0.0005399,70.0007,109.7239,247.2755,112.787,-0.00029697,-0.0003554,0.0,0 STARLINK-5898,1 55929U 23037R   23102.14746983 -.00035540  00000-0 -29697-3 0  9990,2 55929  70.0007 109.7239 0005399 247.2755 112.7870 15.69753564  4512,6737.739,91.734,363.242,355.966,0.0
55929.0,STARLINK-5898,PAYLOAD,2023-04-13 12:00:00,15.65747266,0.0003543,70.0,105.938,275.4849,151.0827,-0.0099909,-0.00923143,0.0,0 STARLINK-5898,1 55929U 23037R   23103.50001157 -.00923143  00000-0 -99909-2 0  9995,2 55929  70.0000 105.9380 0003543 275.4849 151.0827 15.65747266  1306,6749.227,91.969,373.484,368.701,0.0
55929.0,STARLINK-5898,PAYLOAD,2023-04-14 14:00:01,15.63648916,0.0003612,70.0,102.9157,273.3952,133.6189,-0.011371,-0.00962397,0.0,0 STARLINK-5898,1 55929U 23037R   23104.58335648 -.00962397  00000-0 -11371-1 0  9999,2 55929  70.0000 102.9157 0003612 273.3952 133.6189 15.63648916  1301,6755.264,92.092,379.569,374.689,0.0
55929.0,STARLINK-5898,PAYLOAD,2023-04-14 18:00:00,15.63263477,0.0003503,70.0002,102.4517,268.0194,356.7379,-0.010325,-0.00869088,0.0,0 STARLINK-5898,1 55929U 23037R   23104.75001157 -.00869088  00000-0 -10325-1 0  9994,2 55929  70.0002 102.4517 0003503 268.0194 356.7379 15.63263477  4921,6756.375,92.115,380.606,375.873,0.0
55929.0,STARLINK-5898,PAYLOAD,2023-04-15 08:00:01,15.62120585,0.0003536,69.9998,100.8293,273.4261,32.0443,-0.010666,-0.00859355,0.0,0 STARLINK-5898,1 55929U 23037R   23105.33334491 -.00859355  00000-0 -10666-1 0  9993,2 55929  69.9998 100.8293 0003536 273.4261  32.0443 15.62120585  5014,6759.67,92.182,383.925,379.144,0.0
55929.0,STARLINK-5898,PAYLOAD,2023-04-15 14:00:01,15.61693734,0.0003441,69.9993,100.1345,270.8999,359.8406,-0.012353,-0.00967721,0.0,0 STARLINK-5898,1 55929U 23037R   23105.58334491 -.00967721  00000-0 -12353-1 0  9992,2 55929  69.9993 100.1345 0003441 270.8999 359.8406 15.61693734  1301,6760.901,92.208,385.093,380.44,0.0
55929.0,STARLINK-5898,PAYLOAD,2023-04-15 22:00:01,15.61013659,0.0003518,69.9996,99.2092,265.8662,77.9764,-0.011786,-0.0090526,0.0,0 STARLINK-5898,1 55929U 23037R   23105.91668981 -.00905260  00000-0 -11786-1 0  9992,2 55929  69.9996  99.2092 0003518 265.8662  77.9764 15.61013659  1304,6762.865,92.248,387.109,382.351,0.0
55929.0,STARLINK-5898,PAYLOAD,2023-04-16 00:00:00,15.60877974,0.0003409,69.9998,98.9779,267.835,184.0712,-0.012524,-0.00952133,0.0,0 STARLINK-5898,1 55929U 23037R   23106.00001157 -.00952133  00000-0 -12524-1 0  9991,2 55929  69.9998  98.9779 0003409 267.8350 184.0712 15.60877974  5112,6763.257,92.256,387.427,382.816,0.0
55929.0,STARLINK-5898,PAYLOAD,2023-04-16 10:00:00,15.60022391,0.0003356,70.0005,97.8223,270.6519,1.2135,-0.011994,-0.00888265,0.0,0 STARLINK-5898,1 55929U 23037R   23106.41667824 -.00888265  00000-0 -11994-1 0  9999,2 55929  70.0005  97.8223 0003356 270.6519   1.2135 15.60022391  1307,6765.729,92.306,389.865,385.324,0.0
55929.0,STARLINK-5898,PAYLOAD,2023-04-16 22:00:00,15.5906604,0.0003233,69.9996,96.4384,264.771,293.4074,-0.012903,-0.0091832,0.0,0 STARLINK-5898,1 55929U 23037R   23106.91667824 -.00918320  00000-0 -12903-1 0  9991,2 55929  69.9996  96.4384 0003233 264.7710 293.4074 15.59066040  1301,6768.496,92.363,392.549,388.173,0.0
55929.0,STARLINK-5898,PAYLOAD,2023-04-17 06:00:00,15.58369501,0.0003263,69.9992,95.5167,272.3445,355.7582,-0.012379,-0.00863097,0.0,0 STARLINK-5898,1 55929U 23037R   23107.25001157 -.00863097  00000-0 -12379-1 0  9997,2 55929  69.9992  95.5167 0003263 272.3445 355.7582 15.58369501  5317,6770.513,92.404,394.587,390.168,0.0
